NORAD_CAT_ID,OBJECT_NAME,OBJECT_TYPE,EPOCH,MEAN_MOTION,ECCENTRICITY,INCLINATION,RA_OF_ASC_NODE,ARG_OF_PERICENTER,MEAN_ANOMALY,BSTAR,MEAN_MOTION_DOT,MEAN_MOTION_DDOT,TLE_LINE0,TLE_LINE1,TLE_LINE2,SEMIMAJOR_AXIS,PERIOD,APOGEE,PERIGEE,DECAYED
52564.0,STARLINK-3959,PAYLOAD,2023-05-03 09:36:08,15.08839584,0.0001284,53.2163,128.658,86.191,273.9229,7.8853e-05,9.67e-06,0.0,0 STARLINK-3959,1 52564U 22051AH  23123.40010274  .00000967  00000-0  78853-4 0  9998,2 52564  53.2163 128.6580 0001284  86.1910 273.9229 15.08839584 54176,6917.882,95.438,540.635,538.858,0.0
52564.0,STARLINK-3959,PAYLOAD,2023-05-04 06:16:08,15.08848362,0.0001277,53.2161,124.7923,86.634,273.4798,8.8895e-05,1.127e-05,0.0,0 STARLINK-3959,1 52564U 22051AH  23124.26121477  .00001127  00000-0  88895-4 0  9997,2 52564  53.2161 124.7923 0001277  86.6340 273.4798 15.08848362 54378,6917.855,95.437,540.603,538.836,0.0
52564.0,STARLINK-3959,PAYLOAD,2023-05-04 09:26:55,15.08848524,0.0001196,53.216,124.1976,88.0261,272.0868,8.184e-05,1.015e-05,0.0,0 STARLINK-3959,1 52564U 22051AH  23124.39369415  .00001015  00000-0  81840-4 0  9996,2 52564  53.2160 124.1976 0001196  88.0261 272.0868 15.08848524 54325,6917.854,95.437,540.547,538.892,0.0
52564.0,STARLINK-3959,PAYLOAD,2023-05-05 06:06:56,15.0884188,0.0001198,53.2158,120.3313,92.626,267.4869,9.0401e-05,1.151e-05,0.0,0 STARLINK-3959,1 52564U 22051AH  23125.25481759  .00001151  00000-0  90401-4 0  9992,2 52564  53.2158 120.3313 0001198  92.6260 267.4869 15.08841880 54526,6917.875,95.437,540.568,538.911,0.0
52564.0,STARLINK-3959,PAYLOAD,2023-05-05 17:14:38,15.08839795,0.000119,53.2157,118.25,90.2471,269.8657,4.1258e-05,3.69e-06,0.0,0 STARLINK-3959,1 52564U 22051AH  23125.71850011  .00000369  00000-0  41258-4 0  9990,2 52564  53.2157 118.2500 0001190  90.2471 269.8657 15.08839795 54522,6917.881,95.438,540.569,538.923,0.0
52564.0,STARLINK-3959,PAYLOAD,2023-05-05 23:36:11,15.08837587,0.0001272,53.2156,117.0603,95.1341,264.9796,8.1138e-06,-1.59e-06,0.0,0 STARLINK-3959,1 52564U 22051AH  23125.98346262 -.00000159  00000-0  81138-5 0  9997,2 52564  53.2156 117.0603 0001272  95.1341 264.9796 15.08837587 54632,6917.888,95.438,540.633,538.873,0.0
52564.0,STARLINK-3959,PAYLOAD,2023-05-06 09:08:29,15.08839648,0.0001278,53.2155,115.2771,86.3797,273.7341,2.3276e-05,8.3e-07,0.0,0 STARLINK-3959,1 52564U 22051AH  23126.38090201  .00000083  00000-0  23276-4 0  9994,2 52564  53.2155 115.2771 0001278  86.3797 273.7341 15.08839648 54623,6917.881,95.438,540.631,538.862,0.0
52564.0,STARLINK-3959,PAYLOAD,2023-05-07 02:37:43,15.08846375,0.0001311,53.2164,112.0061,85.2724,274.8418,0.00011454,1.536e-05,0.0,0 STARLINK-3959,1 52564U 22051AH  23127.10953521  .00001536  00000-0  11454-3 0  9996,2 52564  53.2164 112.0061 0001311  85.2724 274.8418 15.08846375 54808,6917.861,95.437,540.633,538.819,0.0
52564.0,STARLINK-3959,PAYLOAD,2023-05-07 05:48:29,15.08849194,0.0001309,53.2163,111.4111,85.9608,274.1534,0.00013807,1.911e-05,0.0,0 STARLINK-3959,1 52564U 22051AH  23127.24201276  .00001911  00000-0  13807-3 0  9995,2 52564  53.2163 111.4111 0001309  85.9608 274.1534 15.08849194 54759,6917.852,95.437,540.623,538.812,0.0
52564.0,STARLINK-3959,PAYLOAD,2023-05-07 15:20:49,15.08839939,0.0001299,53.2161,109.6271,85.3505,274.7636,7.6181e-05,9.25e-06,0.0,0 STARLINK-3959,1 52564U 22051AH  23127.63946041  .00000925  00000-0  76181-4 0  9993,2 52564  53.2161 109.6271 0001299  85.3505 274.7636 15.08839939 54880,6917.881,95.438,540.644,538.847,0.0
52564.0,STARLINK-3959,PAYLOAD,2023-05-08 05:39:18,15.0883041,0.0001165,53.2165,106.9515,89.2664,270.8462,3.9971e-05,3.48e-06,0.0,0 STARLINK-3959,1 52564U 22051AH  23128.23562995  .00000348  00000-0  39971-4 0  9997,2 52564  53.2165 106.9515 0001165  89.2664 270.8462 15.08830410 54975,6917.91,95.438,540.581,538.969,0.0
52564.0,STARLINK-3959,PAYLOAD,2023-05-08 15:11:36,15.08837211,0.0001177,53.2164,105.167,90.7867,269.326,3.8659e-05,3.27e-06,0.0,0 STARLINK-3959,1 52564U 22051AH  23128.63306707  .00000327  00000-0  38659-4 0  9997,2 52564  53.2164 105.1670 0001177  90.7867 269.3260 15.08837211 54966,6917.889,95.438,540.568,538.94,0.0
52564.0,STARLINK-3959,PAYLOAD,2023-05-09 05:30:04,15.08850128,0.0001166,53.2164,102.4914,99.1833,260.9291,0.00010454,1.377e-05,0.0,0 STARLINK-3959,1 52564U 22051AH  23129.22921803  .00001377  00000-0  10454-3 0  9991,2 52564  53.2164 102.4914 0001166  99.1833 260.9291 15.08850128 55055,6917.849,95.437,540.521,538.908,0.0
52564.0,STARLINK-3959,PAYLOAD,2023-05-10 05:20:52,15.08837979,0.0001117,53.2158,98.0314,104.1867,255.925,0.00013597,1.877e-05,0.0,0 STARLINK-3959,1 52564U 22051AH  23130.22282688  .00001877  00000-0  13597-3 0  9990,2 52564  53.2158  98.0314 0001117 104.1867 255.9250 15.08837979 55207,6917.887,95.438,540.524,538.979,0.0
52564.0,STARLINK-3959,PAYLOAD,2023-05-11 03:36:16,15.08841353,0.0001082,53.2161,93.8686,92.8085,267.3031,5.8793e-05,6.48e-06,0.0,0 STARLINK-3959,1 52564U 22051AH  23131.15018635  .00000648  00000-0  58793-4 0  9995,2 52564  53.2161  93.8686 0001082  92.8085 267.3031 15.08841353 55410,6917.876,95.437,540.49,538.993,0.0
52564.0,STARLINK-3959,PAYLOAD,2023-05-12 03:27:03,15.08835069,0.0001121,53.2152,89.4045,87.2302,272.8818,7.6578e-05,9.31e-06,0.0,0 STARLINK-3959,1 52564U 22051AH  23132.14379392  .00000931  00000-0  76578-4 0  9991,2 52564  53.2152  89.4045 0001121  87.2302 272.8818 15.08835069 55561,6917.895,95.438,540.536,538.985,0.0
52564.0,STARLINK-3959,PAYLOAD,2023-05-13 03:17:50,15.08853367,0.0001271,53.2169,84.9447,82.3968,277.7169,0.00015822,2.232e-05,0.0,0 STARLINK-3959,1 52564U 22051AH  23133.13738638  .00002232  00000-0  15822-3 0  9993,2 52564  53.2169  84.9447 0001271  82.3968 277.7169 15.08853367 55716,6917.84,95.437,540.584,538.825,0.0
52564.0,STARLINK-3959,PAYLOAD,2023-05-14 03:08:37,15.08843718,0.0001246,53.2179,80.4815,87.7631,272.3504,0.0001006,1.314e-05,0.0,0 STARLINK-3959,1 52564U 22051AH  23134.13099042  .00001314  00000-0  10060-3 0  9992,2 52564  53.2179  80.4815 0001246  87.7631 272.3504 15.08843718 55864,6917.869,95.437,540.596,538.872,0.0
52564.0,STARLINK-3959,PAYLOAD,2023-05-15 12:31:43,15.08840439,0.0001153,53.2164,74.2433,84.0087,276.1036,-1.179e-05,-4.75e-06,0.0,0 STARLINK-3959,1 52564U 22051AH  23135.52203048 -.00000475  00000-0 -11790-4 0  9990,2 52564  53.2164  74.2433 0001153  84.0087 276.1036 15.08840439 56070,6917.879,95.438,540.542,538.946,0.0
52564.0,STARLINK-3959,PAYLOAD,2023-05-16 02:50:12,15.08836789,0.0001194,53.2178,71.5674,90.5645,269.5484,2.7718e-05,1.53e-06,0.0,0 STARLINK-3959,1 52564U 22051AH  23136.11819579  .00000153  00000-0  27718-4 0  9996,2 52564  53.2178  71.5674 0001194  90.5645 269.5484 15.08836789 56165,6917.89,95.438,540.581,538.929,0.0
52564.0,STARLINK-3959,PAYLOAD,2023-05-17 04:16:21,15.08846675,0.0001291,53.2184,66.8127,100.3299,259.7839,-1.0196e-06,-3.04e-06,0.0,0 STARLINK-3959,1 52564U 22051AH  23137.17803201 -.00000304  00000-0 -10196-5 0  9991,2 52564  53.2184  66.8127 0001291 100.3299 259.7839 15.08846675 56323,6917.86,95.437,540.618,538.832,0.0
52564.0,STARLINK-3959,PAYLOAD,2023-05-18 02:31:46,15.08838531,0.0001305,53.2188,62.6432,98.7748,261.3392,7.6506e-05,9.3e-06,0.0,0 STARLINK-3959,1 52564U 22051AH  23138.10539639  .00000930  00000-0  76506-4 0  9995,2 52564  53.2188  62.6432 0001305  98.7748 261.3392 15.08838531 56465,6917.885,95.438,540.653,538.847,0.0
52564.0,STARLINK-3959,PAYLOAD,2023-05-18 18:25:37,15.08838585,0.0001264,53.2183,59.6732,80.4906,279.6229,2.8399e-05,1.64e-06,0.0,0 STARLINK-3959,1 52564U 22051AH  23138.76780026  .00000164  00000-0  28399-4 0  9991,2 52564  53.2183  59.6732 0001264  80.4906 279.6229 15.08838585 56490,6917.885,95.438,540.624,538.875,0.0
52564.0,STARLINK-3959,PAYLOAD,2023-05-19 00:47:10,15.08838519,0.0001188,53.2182,58.4811,104.6149,255.4975,-3.4529e-06,-3.43e-06,0.0,0 STARLINK-3959,1 52564U 22051AH  23139.03276042 -.00000343  00000-0 -34529-5 0  9994,2 52564  53.2182  58.4811 0001188 104.6149 255.4975 15.08838519 56607,6917.885,95.438,540.572,538.928,0.0
52564.0,STARLINK-3959,PAYLOAD,2023-05-20 03:48:42,15.08857356,0.0001278,53.2183,53.4252,97.2611,262.8526,5.951e-05,6.6e-06,0.0,0 STARLINK-3959,1 52564U 22051AH  23140.15882784  .00000660  00000-0  59510-4 0  9991,2 52564  53.2183  53.4252 0001278  97.2611 262.8526 15.08857356 56775,6917.827,95.436,540.576,538.808,0.0
52564.0,STARLINK-3959,PAYLOAD,2023-05-20 18:07:11,15.08847565,0.0001336,53.2179,50.7478,102.2389,257.8753,0.00010841,1.438e-05,0.0,0 STARLINK-3959,1 52564U 22051AH  23140.75499131  .00001438  00000-0  10841-3 0  9994,2 52564  53.2179  50.7478 0001336 102.2389 257.8753 15.08847565 56861,6917.857,95.437,540.646,538.798,0.0
52564.0,STARLINK-3959,PAYLOAD,2023-05-21 00:28:43,15.08854302,0.0001144,53.2184,49.5599,104.6791,255.4328,0.00016789,2.386e-05,0.0,0 STARLINK-3959,1 52564U 22051AH  23141.01994313  .00002386  00000-0  16789-3 0  9996,2 52564  53.2184  49.5599 0001144 104.6791 255.4328 15.08854302 56901,6917.837,95.437,540.493,538.91,0.0
52564.0,STARLINK-3959,PAYLOAD,2023-05-21 17:57:59,15.08835081,0.0001279,53.2178,46.2903,92.9668,267.1471,-9.3466e-05,-1.775e-05,0.0,0 STARLINK-3959,1 52564U 22051AH  23141.74860547 -.00001775  00000-0 -93466-4 0  9998,2 52564  53.2178  46.2903 0001279  92.9668 267.1471 15.08835081 57013,6917.895,95.438,540.645,538.876,0.0
52564.0,STARLINK-3959,PAYLOAD,2023-05-21 21:08:45,15.08832156,8.91e-05,53.2179,45.6958,107.2081,252.9009,-0.0001194,-2.187e-05,0.0,0 STARLINK-3959,1 52564U 22051AH  23141.88108751 -.00002187  00000-0 -11940-3 0  9999,2 52564  53.2179  45.6958 0000891 107.2081 252.9009 15.08832156 56967,6917.904,95.438,540.386,539.153,0.0
52564.0,STARLINK-3959,PAYLOAD,2023-05-22 00:19:32,15.08825576,0.0001064,53.2184,45.1007,79.4325,280.6787,-0.00019927,-3.456e-05,0.0,0 STARLINK-3959,1 52564U 22051AH  23142.01357568 -.00003456  00000-0 -19927-3 0  9990,2 52564  53.2184  45.1007 0001064  79.4325 280.6787 15.08825576 57057,6917.924,95.438,540.526,539.053,0.0
